[{"OBJECT_NAME":"SL-8 R/B","OBJECT_ID":"1988-053B","EPOCH":"2026-03-27T11:10:23.762784","MEAN_MOTION":14.38927931,"ECCENTRICITY":0.0021488,"INCLINATION":74.0454,"RA_OF_ASC_NODE":79.6966,"ARG_OF_PERICENTER":256.6468,"MEAN_ANOMALY":220.2542,"EPHEMERIS_TYPE":0,"CLASSIFICATION_TYPE":"U","NORAD_CAT_ID":19257,"ELEMENT_SET_NO":999,"REV_AT_EPOCH":97915,"BSTAR":0.00011726,"MEAN_MOTION_DOT":3.36e-6,"MEAN_MOTION_DDOT":0},{"OBJECT_NAME":"COSMOS 1975","OBJECT_ID":"1988-093A","EPOCH":"2026-03-27T12:50:34.247040","MEAN_MOTION":15.28303569,"ECCENTRICITY":0.0013375,"INCLINATION":82.5165,"RA_OF_ASC_NODE":99.7641,"ARG_OF_PERICENTER":106.3111,"MEAN_ANOMALY":253.9601,"EPHEMERIS_TYPE":0,"CLASSIFICATION_TYPE":"U","NORAD_CAT_ID":19573,"ELEMENT_SET_NO":999,"REV_AT_EPOCH":2213,"BSTAR":0.00022496,"MEAN_MOTION_DOT":6.249e-5,"MEAN_MOTION_DDOT":0},{"OBJECT_NAME":"SL-14 R/B","OBJECT_ID":"1988-093B","EPOCH":"2026-03-27T20:19:55.775712","MEAN_MOTION":14.85677737,"ECCENTRICITY":0.0020197,"INCLINATION":82.5337,"RA_OF_ASC_NODE":25.0012,"ARG_OF_PERICENTER":342.4384,"MEAN_ANOMALY":78.7912,"EPHEMERIS_TYPE":0,"CLASSIFICATION_TYPE":"U","NORAD_CAT_ID":19574,"ELEMENT_SET_NO":999,"REV_AT_EPOCH":371,"BSTAR":6.45e-5,"MEAN_MOTION_DOT":5.85e-6,"MEAN_MOTION_DDOT":0},{"OBJECT_NAME":"SL-16 R/B","OBJECT_ID":"1988-102B","EPOCH":"2026-03-27T18:36:45.449856","MEAN_MOTION":14.16153685,"ECCENTRICITY":0.0015069,"INCLINATION":70.9971,"RA_OF_ASC_NODE":113.4429,"ARG_OF_PERICENTER":334.4229,"MEAN_ANOMALY":25.6147,"EPHEMERIS_TYPE":0,"CLASSIFICATION_TYPE":"U","NORAD_CAT_ID":19650,"ELEMENT_SET_NO":999,"REV_AT_EPOCH":92945,"BSTAR":-7.1179e-5,"MEAN_MOTION_DOT":-1.89e-6,"MEAN_MOTION_DDOT":0},{"OBJECT_NAME":"INTERCOSMOS 24","OBJECT_ID":"1989-080A","EPOCH":"2026-03-27T12:22:45.840576","MEAN_MOTION":12.59580721,"ECCENTRICITY":0.1186831,"INCLINATION":82.6011,"RA_OF_ASC_NODE":92.7922,"ARG_OF_PERICENTER":251.4058,"MEAN_ANOMALY":95.4735,"EPHEMERIS_TYPE":0,"CLASSIFICATION_TYPE":"U","NORAD_CAT_ID":20261,"ELEMENT_SET_NO":999,"REV_AT_EPOCH":66904,"BSTAR":0.00014984,"MEAN_MOTION_DOT":5.06e-6,"MEAN_MOTION_DDOT":0},{"OBJECT_NAME":"SL-14 R/B","OBJECT_ID":"1989-080C","EPOCH":"2026-03-27T17:16:52.696704","MEAN_MOTION":12.50510861,"ECCENTRICITY":0.1230886,"INCLINATION":82.5957,"RA_OF_ASC_NODE":161.6165,"ARG_OF_PERICENTER":143.5569,"MEAN_ANOMALY":225.6079,"EPHEMERIS_TYPE":0,"CLASSIFICATION_TYPE":"U","NORAD_CAT_ID":20262,"ELEMENT_SET_NO":999,"REV_AT_EPOCH":66240,"BSTAR":9.4998e-5,"MEAN_MOTION_DOT":3.43e-6,"MEAN_MOTION_DDOT":0},{"OBJECT_NAME":"DELTA 1 R/B","OBJECT_ID":"1989-089B","EPOCH":"2026-03-27T13:18:24.283872","MEAN_MOTION":14.50677158,"ECCENTRICITY":0.0070565,"INCLINATION":97.0693,"RA_OF_ASC_NODE":291.1497,"ARG_OF_PERICENTER":66.6602,"MEAN_ANOMALY":294.2,"EPHEMERIS_TYPE":0,"CLASSIFICATION_TYPE":"U","NORAD_CAT_ID":20323,"ELEMENT_SET_NO":999,"REV_AT_EPOCH":89832,"BSTAR":8.3782e-5,"MEAN_MOTION_DOT":3.05e-6,"MEAN_MOTION_DDOT":0},{"OBJECT_NAME":"ARIANE 40 R/B","OBJECT_ID":"1990-005H","EPOCH":"2026-03-27T17:48:43.182144","MEAN_MOTION":14.39881884,"ECCENTRICITY":0.0010929,"INCLINATION":98.3045,"RA_OF_ASC_NODE":146.8624,"ARG_OF_PERICENTER":145.6749,"MEAN_ANOMALY":214.5148,"EPHEMERIS_TYPE":0,"CLASSIFICATION_TYPE":"U","NORAD_CAT_ID":20443,"ELEMENT_SET_NO":999,"REV_AT_EPOCH":89540,"BSTAR":8.9344e-5,"MEAN_MOTION_DOT":2.39e-6,"MEAN_MOTION_DDOT":0},{"OBJECT_NAME":"DELTA 2 R/B(1)","OBJECT_ID":"1990-008B","EPOCH":"2026-03-27T00:09:57.970944","MEAN_MOTION":15.58226849,"ECCENTRICITY":0.00784044,"INCLINATION":35.6038,"RA_OF_ASC_NODE":61.0117,"ARG_OF_PERICENTER":60.4502,"MEAN_ANOMALY":300.4023,"EPHEMERIS_TYPE":0,"CLASSIFICATION_TYPE":"U","NORAD_CAT_ID":20453,"ELEMENT_SET_NO":999,"REV_AT_EPOCH":92883,"BSTAR":0.00081030003,"MEAN_MOTION_DOT":0.00073879,"MEAN_MOTION_DDOT":0},{"OBJECT_NAME":"COSMOS 2058","OBJECT_ID":"1990-010A","EPOCH":"2026-03-27T20:30:44.455680","MEAN_MOTION":15.11481776,"ECCENTRICITY":0.0007425,"INCLINATION":82.4685,"RA_OF_ASC_NODE":29.5278,"ARG_OF_PERICENTER":272.0691,"MEAN_ANOMALY":87.9689,"EPHEMERIS_TYPE":0,"CLASSIFICATION_TYPE":"U","NORAD_CAT_ID":20465,"ELEMENT_SET_NO":999,"REV_AT_EPOCH":94498,"BSTAR":0.00029482,"MEAN_MOTION_DOT":5.019e-5,"MEAN_MOTION_DDOT":0},{"OBJECT_NAME":"SL-14 R/B","OBJECT_ID":"1990-010B","EPOCH":"2026-03-27T19:55:07.553856","MEAN_MOTION":14.8358509,"ECCENTRICITY":0.0018558,"INCLINATION":82.4996,"RA_OF_ASC_NODE":250.3438,"ARG_OF_PERICENTER":237.8556,"MEAN_ANOMALY":122.0859,"EPHEMERIS_TYPE":0,"CLASSIFICATION_TYPE":"U","NORAD_CAT_ID":20466,"ELEMENT_SET_NO":999,"REV_AT_EPOCH":93117,"BSTAR":5.8116e-5,"MEAN_MOTION_DOT":5.04e-6,"MEAN_MOTION_DDOT":0},{"OBJECT_NAME":"SL-14 R/B","OBJECT_ID":"1990-018B","EPOCH":"2026-03-27T19:08:38.842656","MEAN_MOTION":14.82162307,"ECCENTRICITY":0.0017015,"INCLINATION":82.5236,"RA_OF_ASC_NODE":206.1674,"ARG_OF_PERICENTER":36.7813,"MEAN_ANOMALY":323.4565,"EPHEMERIS_TYPE":0,"CLASSIFICATION_TYPE":"U","NORAD_CAT_ID":20511,"ELEMENT_SET_NO":999,"REV_AT_EPOCH":92526,"BSTAR":5.0389e-5,"MEAN_MOTION_DOT":4.26e-6,"MEAN_MOTION_DDOT":0},{"OBJECT_NAME":"HST","OBJECT_ID":"1990-037B","EPOCH":"2026-03-27T19:40:12.010944","MEAN_MOTION":15.29755431,"ECCENTRICITY":0.0001637,"INCLINATION":28.4722,"RA_OF_ASC_NODE":276.2991,"ARG_OF_PERICENTER":339.0447,"MEAN_ANOMALY":21.0081,"EPHEMERIS_TYPE":0,"CLASSIFICATION_TYPE":"U","NORAD_CAT_ID":20580,"ELEMENT_SET_NO":999,"REV_AT_EPOCH":77609,"BSTAR":0.00024793,"MEAN_MOTION_DOT":7.586e-5,"MEAN_MOTION_DDOT":0},{"OBJECT_NAME":"SL-16 R/B","OBJECT_ID":"1990-046B","EPOCH":"2026-03-27T19:03:47.858688","MEAN_MOTION":14.15015563,"ECCENTRICITY":0.0016311,"INCLINATION":70.9973,"RA_OF_ASC_NODE":259.8872,"ARG_OF_PERICENTER":275.8665,"MEAN_ANOMALY":84.0598,"EPHEMERIS_TYPE":0,"CLASSIFICATION_TYPE":"U","NORAD_CAT_ID":20625,"ELEMENT_SET_NO":999,"REV_AT_EPOCH":85095,"BSTAR":0.00016203,"MEAN_MOTION_DOT":2.66e-6,"MEAN_MOTION_DDOT":0},{"OBJECT_NAME":"COSMOS 2084","OBJECT_ID":"1990-055A","EPOCH":"2026-03-27T20:27:37.223424","MEAN_MOTION":15.05746979,"ECCENTRICITY":0.001421,"INCLINATION":62.7892,"RA_OF_ASC_NODE":273.625,"ARG_OF_PERICENTER":195.6224,"MEAN_ANOMALY":164.444,"EPHEMERIS_TYPE":0,"CLASSIFICATION_TYPE":"U","NORAD_CAT_ID":20663,"ELEMENT_SET_NO":999,"REV_AT_EPOCH":93905,"BSTAR":0.00019574,"MEAN_MOTION_DOT":2.651e-5,"MEAN_MOTION_DDOT":0},{"OBJECT_NAME":"SL-6 R/B(2)","OBJECT_ID":"1990-055D","EPOCH":"2026-03-27T15:51:11.742912","MEAN_MOTION":15.03678607,"ECCENTRICITY":0.002774,"INCLINATION":62.7831,"RA_OF_ASC_NODE":192.7333,"ARG_OF_PERICENTER":351.1624,"MEAN_ANOMALY":8.8983,"EPHEMERIS_TYPE":0,"CLASSIFICATION_TYPE":"U","NORAD_CAT_ID":20666,"ELEMENT_SET_NO":999,"REV_AT_EPOCH":94089,"BSTAR":0.00013899,"MEAN_MOTION_DOT":1.725e-5,"MEAN_MOTION_DDOT":0},{"OBJECT_NAME":"SL-8 R/B","OBJECT_ID":"1990-078B","EPOCH":"2026-03-27T20:23:08.282688","MEAN_MOTION":14.89605627,"ECCENTRICITY":0.0358589,"INCLINATION":82.9021,"RA_OF_ASC_NODE":234.9691,"ARG_OF_PERICENTER":312.7687,"MEAN_ANOMALY":44.3868,"EPHEMERIS_TYPE":0,"CLASSIFICATION_TYPE":"U","NORAD_CAT_ID":20775,"ELEMENT_SET_NO":999,"REV_AT_EPOCH":81200,"BSTAR":0.00034331,"MEAN_MOTION_DOT":0.00011591,"MEAN_MOTION_DDOT":0}]
