SL-8 R/B                
1 19257U 88053B   26086.46555281  .00000336  00000+0  11726-3 0  9997
2 19257  74.0454  79.6966 0021488 256.6468 220.2542 14.38927931979158
COSMOS 1975             
1 19573U 88093A   26086.53511860  .00006249  00000+0  22496-3 0  9990
2 19573  82.5165  99.7641 0013375 106.3111 253.9601 15.28303569 22138
SL-14 R/B               
1 19574U 88093B   26086.84717333  .00000585  00000+0  64500-4 0  9998
2 19574  82.5337  25.0012 0020197 342.4384  78.7912 14.85677737  3713
SL-16 R/B               
1 19650U 88102B   26086.77552604 -.00000189  00000+0 -71179-4 0  9996
2 19650  70.9971 113.4429 0015069 334.4229  25.6147 14.16153685929452
INTERCOSMOS 24          
1 20261U 89080A   26086.51580834  .00000506  00000+0  14984-3 0  9991
2 20261  82.6011  92.7922 1186831 251.4058  95.4735 12.59580721669043
SL-14 R/B               
1 20262U 89080C   26086.72005436  .00000343  00000+0  94998-4 0  9998
2 20262  82.5957 161.6165 1230886 143.5569 225.6079 12.50510861662405
DELTA 1 R/B             
1 20323U 89089B   26086.55444773  .00000305  00000+0  83782-4 0  9994
2 20323  97.0693 291.1497 0070565  66.6602 294.2000 14.50677158898329
ARIANE 40 R/B           
1 20443U 90005H   26086.74216646  .00000239  00000+0  89344-4 0  9990
2 20443  98.3045 146.8624 0010929 145.6749 214.5148 14.39881884895407
DELTA 2 R/B(1)          
1 20453U 90008B   26086.00692096  .00073879  00000+0  81030-3 0  9993
2 20453  35.6038  61.0117 0078404  60.4502 300.4023 15.58226849928839
COSMOS 2058             
1 20465U 90010A   26086.85468120  .00005019  00000+0  29482-3 0  9995
2 20465  82.4685  29.5278 0007425 272.0691  87.9689 15.11481776944982
SL-14 R/B               
1 20466U 90010B   26086.82994854  .00000504  00000+0  58116-4 0  9992
2 20466  82.4996 250.3438 0018558 237.8556 122.0859 14.83585090931177
SL-14 R/B               
1 20511U 90018B   26086.79767179  .00000426  00000+0  50389-4 0  9992
2 20511  82.5236 206.1674 0017015  36.7813 323.4565 14.82162307925261
HST                     
1 20580U 90037B   26086.81958346  .00007586  00000+0  24793-3 0  9993
2 20580  28.4722 276.2991 0001637 339.0447  21.0081 15.29755431776098
SL-16 R/B               
1 20625U 90046B   26086.79430392  .00000266  00000+0  16203-3 0  9991
2 20625  70.9973 259.8872 0016311 275.8665  84.0598 14.15015563850956
COSMOS 2084             
1 20663U 90055A   26086.85251416  .00002651  00000+0  19574-3 0  9992
2 20663  62.7892 273.6250 0014210 195.6224 164.4440 15.05746979939057
SL-6 R/B(2)             
1 20666U 90055D   26086.66055258  .00001725  00000+0  13899-3 0  9995
2 20666  62.7831 192.7333 0027740 351.1624   8.8983 15.03678607940898
SL-8 R/B                
1 20775U 90078B   26086.84940142  .00011591  00000+0  34331-3 0  9992
2 20775  82.9021 234.9691 0358589 312.7687  44.3868 14.89605627812003
